MALLIGYONG-1            
1 58400U 23179A   24254.93046907  .00006158  00000+0  28380-3 0  9997
2 58400  97.3891 140.3320 0010007 125.9385 234.2781 15.20587176 44760
